GLOBALSTAR M094         
1 39074U 13005C   25281.17233287 -.00000086  00000+0  98360-4 0  9997
2 39074  51.9945 198.1096 0000722  90.8877 269.2072 12.62264130586646
GLOBALSTAR M096         
1 39075U 13005D   25281.34391918 -.00000105  00000+0 -53410-5 0  9994
2 39075  52.0060 246.1907 0000617  86.5714 273.5223 12.62267374585588
GLOBALSTAR M078         
1 39076U 13005E   25281.55550131  .00000022  00000+0  70165-3 0  9992
2 39076  51.9891 329.9071 0001280  79.9648 280.1363 12.62260890584236
GLOBALSTAR M095         
1 39077U 13005F   25281.58149694 -.00000076  00000+0  15305-3 0  9999
2 39077  52.0095 327.0736 0000899 106.1199 253.9767 12.62260510584090
GLOBALSTAR M087         
1 52888U 22064A   25281.43651500 -.00000095  00000+0  48199-4 0  9996
2 52888  51.9975 108.8955 0001019  97.5536 262.5446 12.62289286159348
